NORAD_CAT_ID,OBJECT_NAME,OBJECT_TYPE,EPOCH,MEAN_MOTION,ECCENTRICITY,INCLINATION,RA_OF_ASC_NODE,ARG_OF_PERICENTER,MEAN_ANOMALY,BSTAR,MEAN_MOTION_DOT,MEAN_MOTION_DDOT,TLE_LINE0,TLE_LINE1,TLE_LINE2,SEMIMAJOR_AXIS,PERIOD,APOGEE,PERIGEE,DECAYED
56468.0,STARLINK-5998,PAYLOAD,2024-01-18 19:39:00,14.9833524,0.0002558,70.0013,313.1294,245.737,114.3522,-3.6743e-05,-5.31e-06,0.0,0 STARLINK-5998,1 56468U 23064W   24018.81875011 -.00000531  00000-0 -36743-4 0  9998,2 56468  70.0013 313.1294 0002558 245.7370 114.3522 14.98335240 38641,6950.177,96.107,573.82,570.264,0.0
56468.0,STARLINK-5998,PAYLOAD,2024-01-18 21:15:08,14.9833664,0.000249,70.0013,312.962,248.0185,112.0709,-6.002e-05,-8.09e-06,0.0,0 STARLINK-5998,1 56468U 23064W   24018.88551016 -.00000809  00000-0 -60020-4 0  9994,2 56468  70.0013 312.9620 0002490 248.0185 112.0709 14.98336640 38294,6950.172,96.107,573.768,570.307,0.0
56468.0,STARLINK-5998,PAYLOAD,2024-01-19 05:15:48,14.98337823,0.0002819,70.0003,312.1193,262.6478,97.4361,-6.5685e-05,-8.77e-06,0.0,0 STARLINK-5998,1 56468U 23064W   24019.21930875 -.00000877  00000-0 -65685-4 0  9993,2 56468  70.0003 312.1193 0002819 262.6478  97.4361 14.98337823 38342,6950.169,96.106,573.993,570.074,0.0
56468.0,STARLINK-5998,PAYLOAD,2024-01-19 19:41:01,14.98331322,0.000268,70.0005,310.604,257.3455,102.7404,-1.791e-05,-3.07e-06,0.0,0 STARLINK-5998,1 56468U 23064W   24019.82015097 -.00000307  00000-0 -17910-4 0  9996,2 56468  70.0005 310.6040 0002680 257.3455 102.7404 14.98331322 38795,6950.189,96.107,573.916,570.191,0.0
56468.0,STARLINK-5998,PAYLOAD,2024-01-19 22:53:17,14.98328981,0.0002852,70.0007,310.2672,265.1699,94.9134,3.2581e-05,2.96e-06,0.0,0 STARLINK-5998,1 56468U 23064W   24019.95367078  .00000296  00000-0  32581-4 0  9995,2 56468  70.0007 310.2672 0002852 265.1699  94.9134 14.98328981 38454,6950.196,96.107,574.043,570.079,0.0
56468.0,STARLINK-5998,PAYLOAD,2024-01-20 05:17:49,14.98333767,0.0002548,70.0007,309.5938,254.915,105.1728,4.5785e-05,4.53e-06,0.0,0 STARLINK-5998,1 56468U 23064W   24020.22070736  .00000453  00000-0  45785-4 0  9994,2 56468  70.0007 309.5938 0002548 254.9150 105.1728 14.98333767 38496,6950.181,96.107,573.817,570.275,0.0
56468.0,STARLINK-5998,PAYLOAD,2024-01-20 19:43:02,14.98327339,0.0002285,70.0014,308.0784,253.4982,106.5926,7.2174e-06,-7e-08,0.0,0 STARLINK-5998,1 56468U 23064W   24020.82155213 -.00000007  00000-0  72174-5 0  9993,2 56468  70.0014 308.0784 0002285 253.4982 106.5926 14.98327339 38945,6950.201,96.107,573.654,570.478,0.0
56468.0,STARLINK-5998,PAYLOAD,2024-01-20 22:55:18,14.98322664,0.000233,70.0009,307.742,256.9733,103.1166,-2.5975e-06,-1.24e-06,0.0,0 STARLINK-5998,1 56468U 23064W   24020.95507585 -.00000124  00000-0 -25975-5 0  9998,2 56468  70.0009 307.7420 0002330 256.9733 103.1166 14.98322664 38603,6950.216,96.107,573.7,570.461,0.0
56468.0,STARLINK-5998,PAYLOAD,2024-01-21 05:19:50,14.98327053,0.000235,70.0009,307.0687,255.8569,104.2329,3.3003e-05,3.01e-06,0.0,0 STARLINK-5998,1 56468U 23064W   24021.22211266  .00000301  00000-0  33003-4 0  9992,2 56468  70.0009 307.0687 0002350 255.8569 104.2329 14.98327053 38642,6950.202,96.107,573.7,570.434,0.0
56468.0,STARLINK-5998,PAYLOAD,2024-01-21 19:45:02,14.98331275,0.0002386,70.0009,305.5536,256.0461,104.0433,-2.2304e-06,-1.2e-06,0.0,0 STARLINK-5998,1 56468U 23064W   24021.82295018 -.00000120  00000-0 -22304-5 0  9999,2 56468  70.0009 305.5536 0002386 256.0461 104.0433 14.98331275 39096,6950.189,96.107,573.712,570.396,0.0
56468.0,STARLINK-5998,PAYLOAD,2024-01-21 22:57:19,14.9833087,0.0002403,70.0009,305.217,255.852,104.2372,-7.6873e-06,-1.85e-06,0.0,0 STARLINK-5998,1 56468U 23064W   24021.95647041 -.00000185  00000-0 -76873-5 0  9991,2 56468  70.0009 305.2170 0002403 255.8520 104.2372 14.98330870 38756,6950.19,96.107,573.725,570.385,0.0
56468.0,STARLINK-5998,PAYLOAD,2024-01-22 05:21:51,14.98330841,0.0002474,70.0008,304.5434,254.8458,105.2427,3.8182e-05,3.63e-06,0.0,0 STARLINK-5998,1 56468U 23064W   24022.22350890  .00000363  00000-0  38182-4 0  9991,2 56468  70.0008 304.5434 0002474 254.8458 105.2427 14.98330841 38791,6950.19,96.107,573.775,570.336,0.0
56468.0,STARLINK-5998,PAYLOAD,2024-01-22 19:47:04,14.98324279,0.0002391,70.0008,303.0286,251.8116,108.2783,3.3295e-05,3.04e-06,0.0,0 STARLINK-5998,1 56468U 23064W   24022.82435302  .00000304  00000-0  33295-4 0  9994,2 56468  70.0008 303.0286 0002391 251.8116 108.2783 14.98324279 39243,6950.211,96.107,573.737,570.414,0.0
56468.0,STARLINK-5998,PAYLOAD,2024-01-22 22:59:20,14.98328809,0.0002347,70.0008,302.6916,251.8015,108.2889,-6.3391e-05,-8.49e-06,0.0,0 STARLINK-5998,1 56468U 23064W   24022.95787335 -.00000849  00000-0 -63391-4 0  9990,2 56468  70.0008 302.6916 0002347 251.8015 108.2889 14.98328809 38909,6950.197,96.107,573.693,570.43,0.0
56468.0,STARLINK-5998,PAYLOAD,2024-01-23 03:47:44,14.98329782,0.0002649,70.001,302.187,259.2605,100.8256,-3.1573e-06,-1.31e-06,0.0,0 STARLINK-5998,1 56468U 23064W   24023.15815107 -.00000131  00000-0 -31573-5 0  9994,2 56468  70.0010 302.1870 0002649 259.2605 100.8256 14.98329782 38938,6950.194,96.107,573.9,570.217,0.0
56468.0,STARLINK-5998,PAYLOAD,2024-01-23 23:01:20,14.98332692,0.0002399,70.001,300.1674,244.4377,115.6534,3.2856e-05,2.99e-06,0.0,0 STARLINK-5998,1 56468U 23064W   24023.95926730  .00000299  00000-0  32856-4 0  9994,2 56468  70.0010 300.1674 0002399 244.4377 115.6534 14.98332692 39053,6950.185,96.107,573.717,570.382,0.0
56468.0,STARLINK-5998,PAYLOAD,2024-01-24 03:49:43,14.98375663,0.0002663,70.0012,299.6631,242.0262,118.0627,-0.00070209,-8.47e-05,0.0,0 STARLINK-5998,1 56468U 23064W   24024.15953599 -.00008470  00000-0 -70209-3 0  9994,2 56468  70.0012 299.6631 0002663 242.0262 118.0627 14.98375663 39449,6950.052,96.104,573.767,570.066,0.0
56468.0,STARLINK-5998,PAYLOAD,2024-01-24 19:51:05,14.98329684,0.0002408,70.0013,297.9812,242.1311,117.9604,9.8837e-06,2.5e-07,0.0,0 STARLINK-5998,1 56468U 23064W   24024.82714899  .00000025  00000-0  98837-5 0  9991,2 56468  70.0013 297.9812 0002408 242.1311 117.9604 14.98329684 39541,6950.194,96.107,573.732,570.385,0.0
56468.0,STARLINK-5998,PAYLOAD,2024-01-24 21:27:13,14.98329429,0.0002416,70.0013,297.8129,242.2447,117.8467,5.47e-06,-2.8e-07,0.0,0 STARLINK-5998,1 56468U 23064W   24024.89390922 -.00000028  00000-0  54700-5 0  9990,2 56468  70.0013 297.8129 0002416 242.2447 117.8467 14.98329429 39195,6950.195,96.107,573.739,570.38,0.0
56468.0,STARLINK-5998,PAYLOAD,2024-01-25 03:51:46,14.98325972,0.0002454,70.0009,297.139,247.9211,112.1687,-3.9333e-05,-5.62e-06,0.0,0 STARLINK-5998,1 56468U 23064W   24025.16095313 -.00000562  00000-0 -39333-4 0  9995,2 56468  70.0009 297.1390 0002454 247.9211 112.1687 14.98325972 39232,6950.205,96.107,573.776,570.365,0.0
56468.0,STARLINK-5998,PAYLOAD,2024-01-25 19:53:06,14.9832892,0.0002462,70.0008,295.4557,252.2256,107.8635,-5.6288e-05,-7.64e-06,0.0,0 STARLINK-5998,1 56468U 23064W   24025.82855271 -.00000764  00000-0 -56288-4 0  9997,2 56468  70.0008 295.4557 0002462 252.2256 107.8635 14.98328920 39694,6950.196,96.107,573.772,570.35,0.0
56468.0,STARLINK-5998,PAYLOAD,2024-01-25 21:29:15,14.98329027,0.0002458,70.0008,295.2872,252.2216,107.8675,-5.3167e-05,-7.27e-06,0.0,0 STARLINK-5998,1 56468U 23064W   24025.89531257 -.00000727  00000-0 -53167-4 0  9991,2 56468  70.0008 295.2872 0002458 252.2216 107.8675 14.98329027 39348,6950.196,96.107,573.769,570.353,0.0
56468.0,STARLINK-5998,PAYLOAD,2024-01-26 03:53:47,14.98329714,0.0002447,70.0007,294.6139,251.8707,108.2186,-3.8997e-05,-5.58e-06,0.0,0 STARLINK-5998,1 56468U 23064W   24026.16235188 -.00000558  00000-0 -38997-4 0  9992,2 56468  70.0007 294.6139 0002447 251.8707 108.2186 14.98329714 39383,6950.194,96.107,573.759,570.358,0.0
56468.0,STARLINK-5998,PAYLOAD,2024-01-26 19:55:07,14.98329357,0.0002533,70.0001,292.9302,256.8207,103.2669,5.3347e-05,5.44e-06,0.0,0 STARLINK-5998,1 56468U 23064W   24026.82994921  .00000544  00000-0  53347-4 0  9991,2 56468  70.0001 292.9302 0002533 256.8207 103.2669 14.98329357 39841,6950.195,96.107,573.82,570.299,0.0
56468.0,STARLINK-5998,PAYLOAD,2024-01-27 03:55:47,14.98330303,0.0002527,70.0001,292.0881,256.9419,103.1458,5.7596e-05,5.94e-06,0.0,0 STARLINK-5998,1 56468U 23064W   24027.16374856  .00000594  00000-0  57596-4 0  9993,2 56468  70.0001 292.0881 0002527 256.9419 103.1458 14.98330303 39537,6950.192,96.107,573.813,570.301,0.0
56468.0,STARLINK-5998,PAYLOAD,2024-01-27 19:57:08,14.98325393,0.0002556,70.0,290.4038,253.8108,106.277,2.4929e-05,2.04e-06,0.0,0 STARLINK-5998,1 56468U 23064W   24027.83135251  .00000204  00000-0  24929-4 0  9993,2 56468  70.0000 290.4038 0002556 253.8108 106.2770 14.98325393 39999,6950.207,96.107,573.849,570.296,0.0
56468.0,STARLINK-5998,PAYLOAD,2024-01-27 21:33:16,14.98326987,0.0002552,70.0,290.2356,254.5094,105.5783,-3.005e-06,-1.29e-06,0.0,0 STARLINK-5998,1 56468U 23064W   24027.89811253 -.00000129  00000-0 -30050-5 0  9993,2 56468  70.0000 290.2356 0002552 254.5094 105.5783 14.98326987 39646,6950.202,96.107,573.841,570.294,0.0
56468.0,STARLINK-5998,PAYLOAD,2024-01-28 03:57:49,14.98326627,0.0002574,69.9999,289.5622,255.5517,104.5357,-9.406e-06,-2.05e-06,0.0,0 STARLINK-5998,1 56468U 23064W   24028.16515343 -.00000205  00000-0 -94060-5 0  9991,2 56468  69.9999 289.5622 0002574 255.5517 104.5357 14.98326627 39683,6950.203,96.107,573.857,570.279,0.0
56468.0,STARLINK-5998,PAYLOAD,2024-01-28 19:59:09,14.98331985,0.0002609,69.9997,287.8788,256.0675,104.0194,-3.6004e-06,-1.36e-06,0.0,0 STARLINK-5998,1 56468U 23064W   24028.83274957 -.00000136  00000-0 -36004-5 0  9995,2 56468  69.9997 287.8788 0002609 256.0675 104.0194 14.98331985 40145,6950.187,96.107,573.865,570.238,0.0
56468.0,STARLINK-5998,PAYLOAD,2024-01-28 21:35:17,14.9833167,0.000262,69.9998,287.7104,255.5735,104.5133,-7.1391e-06,-1.78e-06,0.0,0 STARLINK-5998,1 56468U 23064W   24028.89950973 -.00000178  00000-0 -71391-5 0  9994,2 56468  69.9998 287.7104 0002620 255.5735 104.5133 14.98331670 39799,6950.188,96.107,573.874,570.232,0.0
